IXPE                    
1 49954U 21121A   24137.25001157  .00011073  00000+0  84780-3 0  9997
2 49954   0.2302 270.9562 0009215 164.9248 323.6791 14.97798424133106
